$$SOE
2461295.500000000, A.D. 2026-Sep-12 00:00:00.0000, 6.899968534246932E+07, 4.620544055339371E+08, 4.235914436146054E+07,
2461302.500000000, A.D. 2026-Sep-19 00:00:00.0000, 5.886765591862499E+07, 4.635646816456857E+08, 4.159460634134579E+07,
2461309.500000000, A.D. 2026-Sep-26 00:00:00.0000, 4.870785490089684E+07, 4.648569975877646E+08, 4.081050511475420E+07,
2461316.500000000, A.D. 2026-Oct-03 00:00:00.0000, 3.852506188232247E+07, 4.659308062748477E+08, 4.000721492192888E+07,
2461323.500000000, A.D. 2026-Oct-10 00:00:00.0000, 2.832406537757202E+07, 4.667856694118931E+08, 3.918511930059493E+07,
2461330.500000000, A.D. 2026-Oct-17 00:00:00.0000, 1.810966011506271E+07, 4.674212576759107E+08, 3.834461086928904E+07,
2461337.500000000, A.D. 2026-Oct-24 00:00:00.0000, 7.886644319687913E+06, 4.678373507299053E+08, 3.748609109765130E+07,
2461344.500000000, A.D. 2026-Oct-31 00:00:00.0000, -2.340182913040543E+06, 4.680338370028588E+08, 3.660997004957440E+07,
2461351.500000000, A.D. 2026-Nov-07 00:00:00.0000, -1.256602381047231E+07, 4.680107133107125E+08, 3.571666607464752E+07,
2461358.500000000, A.D. 2026-Nov-14 00:00:00.0000, -2.278608348099734E+07, 4.677680852075083E+08, 3.480660550255075E+07,
2461365.500000000, A.D. 2026-Nov-21 00:00:00.0000, -3.299557264529606E+07, 4.673061687505624E+08, 3.388022256273022E+07,
2461372.500000000, A.D. 2026-Nov-28 00:00:00.0000, -4.318971253461336E+07, 4.666252906702960E+08, 3.293795937519917E+07,
2461379.500000000, A.D. 2026-Dec-05 00:00:00.0000, -5.336373833505591E+07, 4.657258862864805E+08, 3.198026562723485E+07,
2461386.500000000, A.D. 2026-Dec-12 00:00:00.0000, -6.351290101122582E+07, 4.646084982833649E+08, 3.100759817560905E+07,
2461393.500000000, A.D. 2026-Dec-19 00:00:00.0000, -7.363246939348145E+07, 4.632737763499711E+08, 3.002042074823809E+07,
2461400.500000000, A.D. 2026-Dec-26 00:00:00.0000, -8.371773266981640E+07, 4.617224768164245E+08, 2.901920368777534E+07,
2461407.500000000, A.D. 2027-Jan-02 00:00:00.0000, -9.376400300609019E+07, 4.599554620959113E+08, 2.800442369683596E+07,
2461414.500000000, A.D. 2027-Jan-09 00:00:00.0000, -1.037666181771063E+08, 4.579736999541578E+08, 2.697656357634619E+07,
2461421.500000000, A.D. 2027-Jan-16 00:00:00.0000, -1.137209441724398E+08, 4.557782626170902E+08, 2.593611195491123E+07,
2461428.500000000, A.D. 2027-Jan-23 00:00:00.0000, -1.236223777303991E+08, 4.533703256784705E+08, 2.488356300200894E+07,
2461435.500000000, A.D. 2027-Jan-30 00:00:00.0000, -1.334663486121381E+08, 4.507511667607950E+08, 2.381941610408276E+07,
2461442.500000000, A.D. 2027-Feb-06 00:00:00.0000, -1.432483211913995E+08, 4.479221642706356E+08, 2.274417549254853E+07,
2461449.500000000, A.D. 2027-Feb-13 00:00:00.0000, -1.529637958206768E+08, 4.448847974702158E+08, 2.165834996578699E+07,
2461456.500000000, A.D. 2027-Feb-20 00:00:00.0000, -1.626083123367334E+08, 4.416406470769540E+08, 2.056245285729831E+07,
2461463.500000000, A.D. 2027-Feb-27 00:00:00.0000, -1.721774543071266E+08, 4.381913931770397E+08, 1.945700185931507E+07,
2461470.500000000, A.D. 2027-Mar-06 00:00:00.0000, -1.816668509996719E+08, 4.345388123751202E+08, 1.834251858234423E+07,
2461477.500000000, A.D. 2027-Mar-13 00:00:00.0000, -1.910721786751195E+08, 4.306847762328206E+08, 1.721952816496909E+07,
2461484.500000000, A.D. 2027-Mar-20 00:00:00.0000, -2.003891623303633E+08, 4.266312501638088E+08, 1.608855896922648E+07,
2461491.500000000, A.D. 2027-Mar-27 00:00:00.0000, -2.096135776882317E+08, 4.223802922373097E+08, 1.495014229819775E+07,
2461498.500000000, A.D. 2027-Apr-03 00:00:00.0000, -2.187412532296091E+08, 4.179340518433183E+08, 1.380481211340341E+07,
2461505.500000000, A.D. 2027-Apr-10 00:00:00.0000, -2.277680722054733E+08, 4.132947682438875E+08, 1.265310474841273E+07,
2461512.500000000, A.D. 2027-Apr-17 00:00:00.0000, -2.366899746056385E+08, 4.084647689976427E+08, 1.149555861563879E+07,
2461519.500000000, A.D. 2027-Apr-24 00:00:00.0000, -2.455029590038671E+08, 4.034464681968428E+08, 1.033271389416394E+07,
2461526.500000000, A.D. 2027-May-01 00:00:00.0000, -2.542030839786668E+08, 3.982423645462067E+08, 9.165112173603565E+06,
2461533.500000000, A.D. 2027-May-08 00:00:00.0000, -2.627864688016965E+08, 3.928550400333468E+08, 7.993296087209821E+06,
2461540.500000000, A.D. 2027-May-15 00:00:00.0000, -2.712492948905976E+08, 3.872871601465933E+08, 6.817809149599761E+06,
2461547.500000000, A.D. 2027-May-22 00:00:00.0000, -2.795878095889329E+08, 3.815414730516736E+08, 5.639195730843514E+06,
2461554.500000000, A.D. 2027-May-29 00:00:00.0000, -2.877983289145405E+08, 3.756208062592677E+08, 4.458000739465564E+06,
2461561.500000000, A.D. 2027-Jun-05 00:00:00.0000, -2.958772383914768E+08, 3.695280639149773E+08, 3.274769189573973E+06,
2461568.500000000, A.D. 2027-Jun-12 00:00:00.0000, -3.038209939740841E+08, 3.632662251464617E+08, 2.090045871711224E+06,
2461575.500000000, A.D. 2027-Jun-19 00:00:00.0000, -3.116261233934516E+08, 3.568383425354525E+08, 9.043750815945864E+05,
2461582.500000000, A.D. 2027-Jun-26 00:00:00.0000, -3.192892276459342E+08, 3.502475404548681E+08, -2.816996398974359E+05,
2461589.500000000, A.D. 2027-Jul-03 00:00:00.0000, -3.268069824911929E+08, 3.434970132807676E+08, -1.467635766558379E+06,
2461596.500000000, A.D. 2027-Jul-10 00:00:00.0000, -3.341761399227960E+08, 3.365900234895584E+08, -2.652892048815206E+06,
2461603.500000000, A.D. 2027-Jul-17 00:00:00.0000, -3.413935295749891E+08, 3.295298996034753E+08, -3.836928783981562E+06,
2461610.500000000, A.D. 2027-Jul-24 00:00:00.0000, -3.484560599090591E+08, 3.223200339235337E+08, -5.019208113972753E+06,
2461617.500000000, A.D. 2027-Jul-31 00:00:00.0000, -3.553607187674268E+08, 3.149638802874168E+08, -6.199194368676767E+06,
2461624.500000000, A.D. 2027-Aug-07 00:00:00.0000, -3.621045734956495E+08, 3.074649530057354E+08, -7.376354342202067E+06,
2461631.500000000, A.D. 2027-Aug-14 00:00:00.0000, -3.686847729332288E+08, 2.998268267253929E+08, -8.550157311538294E+06,
2461638.500000000, A.D. 2027-Aug-21 00:00:00.0000, -3.750985506534674E+08, 2.920531338579310E+08, -9.720075129102603E+06,
2461645.500000000, A.D. 2027-Aug-28 00:00:00.0000, -3.813432260184472E+08, 2.841475607751542E+08, -1.088558260496366E+07,
2461652.500000000, A.D. 2027-Sep-04 00:00:00.0000, -3.874162042311407E+08, 2.761138452727554E+08, -1.204615786560595E+07,
2461659.500000000, A.D. 2027-Sep-11 00:00:00.0000, -3.933149767832572E+08, 2.679557746423730E+08, -1.320128261556590E+07,
2461666.500000000, A.D. 2027-Sep-18 00:00:00.0000, -3.990371221676601E+08, 2.596771837051393E+08, -1.435044236765306E+07,
2461673.500000000, A.D. 2027-Sep-25 00:00:00.0000, -4.045803066273543E+08, 2.512819527321666E+08, -1.549312666940127E+07,
2461680.500000000, A.D. 2027-Oct-02 00:00:00.0000, -4.099422848662786E+08, 2.427740052822664E+08, -1.662882933064197E+07,
2461687.500000000, A.D. 2027-Oct-09 00:00:00.0000, -4.151209006994047E+08, 2.341573059547330E+08, -1.775704865481101E+07,
2461694.500000000, A.D. 2027-Oct-16 00:00:00.0000, -4.201140875788282E+08, 2.254358580042616E+08, -1.887728768436034E+07,
2461701.500000000, A.D. 2027-Oct-23 00:00:00.0000, -4.249198687358514E+08, 2.166137008139555E+08, -1.998905448457877E+07,
2461708.500000000, A.D. 2027-Oct-30 00:00:00.0000, -4.295363565643205E+08, 2.076949078380907E+08, -2.109186245023266E+07,
2461715.500000000, A.D. 2027-Nov-06 00:00:00.0000, -4.339617524092874E+08, 1.986835861438915E+08, -2.218523043606307E+07,
2461722.500000000, A.D. 2027-Nov-13 00:00:00.0000, -4.381943487482905E+08, 1.895838754779831E+08, -2.326868269884171E+07,
2461729.500000000, A.D. 2027-Nov-20 00:00:00.0000, -4.422325308641135E+08, 1.803999446744963E+08, -2.434174909571216E+07,
2461736.500000000, A.D. 2027-Nov-27 00:00:00.0000, -4.460747763900766E+08, 1.711359883704038E+08, -2.540396544434869E+07,
2461743.500000000, A.D. 2027-Dec-04 00:00:00.0000, -4.497196547520376E+08, 1.617962249420336E+08, -2.645487378433271E+07,
2461750.500000000, A.D. 2027-Dec-11 00:00:00.0000, -4.531658270598758E+08, 1.523848947003251E+08, -2.749402256805326E+07,
2461757.500000000, A.D. 2027-Dec-18 00:00:00.0000, -4.564120461747934E+08, 1.429062580079095E+08, -2.852096683394695E+07,
2461764.500000000, A.D. 2027-Dec-25 00:00:00.0000, -4.594571568011059E+08, 1.333645933176112E+08, -2.953526837592855E+07,
2461771.500000000, A.D. 2028-Jan-01 00:00:00.0000, -4.623000955617932E+08, 1.237641951484089E+08, -3.053649591133172E+07,
$$EOE